HIMAWARI-8              
1 40267U 14060A   24023.21025581 -.00000274  00000+0  00000+0 0  9997
2 40267   0.0569 233.4915 0001104  68.4604  36.4090  1.00271965 33977
